NORAD_CAT_ID,OBJECT_NAME,OBJECT_TYPE,EPOCH,MEAN_MOTION,ECCENTRICITY,INCLINATION,RA_OF_ASC_NODE,ARG_OF_PERICENTER,MEAN_ANOMALY,BSTAR,MEAN_MOTION_DOT,MEAN_MOTION_DDOT,TLE_LINE0,TLE_LINE1,TLE_LINE2,SEMIMAJOR_AXIS,PERIOD,APOGEE,PERIGEE,DECAYED
55422.0,STARLINK-5006,PAYLOAD,2024-05-15 21:11:38,14.9835035,0.0002338,69.999,315.4825,261.093,98.9964,0.0002142,2.465e-05,0.0,0 STARLINK-5006,1 55422U 23014AH  24136.88308220  .00002465  00000-0  21420-3 0  9994,2 55422  69.9990 315.4825 0002338 261.0930  98.9964 14.98350350 72289,6950.13,96.106,573.62,570.37,0.0
55422.0,STARLINK-5006,PAYLOAD,2024-05-16 05:12:18,14.98353116,0.000232,70.0004,314.6405,262.487,97.6026,0.00028898,3.359e-05,0.0,0 STARLINK-5006,1 55422U 23014AH  24137.21687810  .00003359  00000-0  28898-3 0  9996,2 55422  70.0004 314.6405 0002320 262.4870  97.6026 14.98353116 71391,6950.121,96.106,573.599,570.374,0.0
55422.0,STARLINK-5006,PAYLOAD,2024-05-16 11:36:50,14.98354908,0.0002161,70.0005,313.9664,263.0569,97.0344,0.00023129,2.67e-05,0.0,0 STARLINK-5006,1 55422U 23014AH  24137.48391445  .00002670  00000-0  23129-3 0  9998,2 55422  70.0005 313.9664 0002161 263.0569  97.0344 14.98354908 72372,6950.116,96.105,573.483,570.479,0.0
55422.0,STARLINK-5006,PAYLOAD,2024-05-16 18:01:21,14.98363455,0.0002184,70.0011,313.2941,256.933,103.1586,0.00037548,4.394e-05,0.0,0 STARLINK-5006,1 55422U 23014AH  24137.75094580  .00004394  00000-0  37548-3 0  9993,2 55422  70.0011 313.2941 0002184 256.9330 103.1586 14.98363455 72411,6950.089,96.105,573.472,570.437,0.0
55422.0,STARLINK-5006,PAYLOAD,2024-05-17 11:38:50,14.9833527,0.0002116,70.0007,311.4412,260.1877,99.9044,-0.00034715,-4.233e-05,0.0,0 STARLINK-5006,1 55422U 23014AH  24138.48530938 -.00004233  00000-0 -34715-3 0  9993,2 55422  70.0007 311.4412 0002116 260.1877  99.9044 14.98335270 71589,6950.177,96.107,573.512,570.571,0.0
55422.0,STARLINK-5006,PAYLOAD,2024-05-17 21:15:39,14.98332865,0.000201,69.9978,310.4289,262.3483,97.7448,-0.00040306,-4.899e-05,0.0,0 STARLINK-5006,1 55422U 23014AH  24138.88586806 -.00004899  00000-0 -40306-3 0  9993,2 55422  69.9978 310.4289 0002010 262.3483  97.7448 14.98332865 72586,6950.184,96.107,573.446,570.652,0.0
55422.0,STARLINK-5006,PAYLOAD,2024-05-18 13:16:59,14.98343529,0.0001888,69.9988,308.747,261.2361,98.8584,-9.1816e-05,-1.189e-05,0.0,0 STARLINK-5006,1 55422U 23014AH  24139.55346238 -.00001189  00000-0 -91816-4 0  9993,2 55422  69.9988 308.7470 0001888 261.2361  98.8584 14.98343529 71743,6950.151,96.106,573.328,570.704,0.0
55422.0,STARLINK-5006,PAYLOAD,2024-05-18 14:53:07,14.98340204,0.000185,69.9996,308.5785,262.1598,97.9351,-1.234e-05,-2.4e-06,0.0,0 STARLINK-5006,1 55422U 23014AH  24139.62022297 -.00000240  00000-0 -12340-4 0  9999,2 55422  69.9996 308.5785 0001850 262.1598  97.9351 14.98340204 72694,6950.161,96.106,573.312,570.741,0.0
55422.0,STARLINK-5006,PAYLOAD,2024-05-18 21:17:39,14.98344009,0.0002533,70.0005,307.9073,268.7604,91.3265,0.00035086,4.097e-05,0.0,0 STARLINK-5006,1 55422U 23014AH  24139.88726152  .00004097  00000-0  35086-3 0  9991,2 55422  70.0005 307.9073 0002533 268.7604  91.3265 14.98344009 72734,6950.15,96.106,573.775,570.254,0.0
55422.0,STARLINK-5006,PAYLOAD,2024-05-19 13:19:00,14.98330853,0.0002218,70.0,306.223,268.8595,91.231,0.0001762,2.01e-05,0.0,0 STARLINK-5006,1 55422U 23014AH  24140.55486810  .00002010  00000-0  17620-3 0  9998,2 55422  70.0000 306.2230 0002218 268.8595  91.2310 14.98330853 72839,6950.19,96.107,573.597,570.514,0.0
55422.0,STARLINK-5006,PAYLOAD,2024-05-20 14:57:09,14.98342207,0.000253,70.0002,303.5309,273.1927,86.8942,0.00056467,6.653e-05,0.0,0 STARLINK-5006,1 55422U 23014AH  24141.62302668  .00006653  00000-0  56467-3 0  9994,2 55422  70.0002 303.5309 0002530 273.1927  86.8942 14.98342207 72997,6950.155,96.106,573.779,570.262,0.0
55422.0,STARLINK-5006,PAYLOAD,2024-05-20 19:45:33,14.98347231,0.0002595,70.0002,303.026,275.0671,85.0192,0.00087603,0.0001038,0.0,0 STARLINK-5006,1 55422U 23014AH  24141.82330505  .00010380  00000-0  87603-3 0  9995,2 55422  70.0002 303.0260 0002595 275.0671  85.0192 14.98347231 72086,6950.14,96.106,573.808,570.201,0.0
55422.0,STARLINK-5006,PAYLOAD,2024-05-21 13:23:02,14.98335169,0.0002102,70.0013,301.1747,261.6622,98.4299,0.00024042,2.777e-05,0.0,0 STARLINK-5006,1 55422U 23014AH  24142.55766461  .00002777  00000-0  24042-3 0  9999,2 55422  70.0013 301.1747 0002102 261.6622  98.4299 14.98335169 72193,6950.177,96.107,573.503,570.581,0.0
55422.0,STARLINK-5006,PAYLOAD,2024-05-21 14:59:10,14.98333688,0.0002099,70.0014,301.0062,258.1507,101.9417,0.00019587,2.245e-05,0.0,0 STARLINK-5006,1 55422U 23014AH  24142.62442479  .00002245  00000-0  19587-3 0  9995,2 55422  70.0014 301.0062 0002099 258.1507 101.9417 14.98333688 73143,6950.181,96.107,573.505,570.588,0.0
55422.0,STARLINK-5006,PAYLOAD,2024-05-21 19:47:34,14.98328068,0.0002162,70.0013,300.5017,261.8971,98.1943,0.0001276,1.43e-05,0.0,0 STARLINK-5006,1 55422U 23014AH  24142.82470777  .00001430  00000-0  12760-3 0  9990,2 55422  70.0013 300.5017 0002162 261.8971  98.1943 14.98328068 73173,6950.199,96.107,573.566,570.561,0.0
55422.0,STARLINK-5006,PAYLOAD,2024-05-22 11:48:55,14.98332187,0.0002513,70.0009,298.818,266.9921,93.095,-4.1422e-05,-5.87e-06,0.0,0 STARLINK-5006,1 55422U 23014AH  24143.49230445 -.00000587  00000-0 -41422-4 0  9992,2 55422  70.0009 298.8180 0002513 266.9921  93.0950 14.98332187 73279,6950.186,96.107,573.798,570.305,0.0
55422.0,STARLINK-5006,PAYLOAD,2024-05-22 19:49:35,14.98333165,0.0002484,69.9998,297.9766,268.3527,91.7348,1.0334e-05,3e-07,0.0,0 STARLINK-5006,1 55422U 23014AH  24143.82610668  .00000030  00000-0  10334-4 0  9997,2 55422  69.9998 297.9766 0002484 268.3527  91.7348 14.98333165 72382,6950.183,96.107,573.775,570.322,0.0
55422.0,STARLINK-5006,PAYLOAD,2024-05-23 13:27:04,14.98328913,0.0002531,69.9998,296.1245,260.2146,99.8727,8.1441e-05,8.79e-06,0.0,0 STARLINK-5006,1 55422U 23014AH  24144.56046675  .00000879  00000-0  81441-4 0  9998,2 55422  69.9998 296.1245 0002531 260.2146  99.8727 14.98328913 73438,6950.196,96.107,573.82,570.302,0.0
55422.0,STARLINK-5006,PAYLOAD,2024-05-23 19:51:36,14.98331782,0.0002482,70.0,295.4516,257.9315,102.1566,0.00010707,1.185e-05,0.0,0 STARLINK-5006,1 55422U 23014AH  24144.82750437  .00001185  00000-0  10707-3 0  9992,2 55422  70.0000 295.4516 0002482 257.9315 102.1566 14.98331782 73475,6950.187,96.107,573.777,570.327,0.0
55422.0,STARLINK-5006,PAYLOAD,2024-05-24 13:29:05,14.98331494,0.0002514,70.0,293.6009,252.5467,107.5417,0.00011702,1.304e-05,0.0,0 STARLINK-5006,1 55422U 23014AH  24145.56186374  .00001304  00000-0  11702-3 0  9996,2 55422  70.0000 293.6009 0002514 252.5467 107.5417 14.98331494 73583,6950.188,96.107,573.801,570.306,0.0
55422.0,STARLINK-5006,PAYLOAD,2024-05-24 19:53:37,14.98331737,0.0002612,69.9996,292.9254,267.8708,92.2152,0.00011168,1.24e-05,0.0,0 STARLINK-5006,1 55422U 23014AH  24145.82890421  .00001240  00000-0  11168-3 0  9995,2 55422  69.9996 292.9254 0002612 267.8708  92.2152 14.98331737 72680,6950.188,96.107,573.868,570.237,0.0
55422.0,STARLINK-5006,PAYLOAD,2024-05-25 13:31:06,14.98326839,0.0002591,69.9998,291.0735,269.4024,90.6839,8.5516e-05,9.27e-06,0.0,0 STARLINK-5006,1 55422U 23014AH  24146.56326774  .00000927  00000-0  85516-4 0  9992,2 55422  69.9998 291.0735 0002591 269.4024  90.6839 14.98326839 73739,6950.203,96.107,573.868,570.267,0.0
55422.0,STARLINK-5006,PAYLOAD,2024-05-25 19:55:38,14.98329841,0.000284,69.9998,290.4018,263.7175,96.3661,6.5766e-05,6.92e-06,0.0,0 STARLINK-5006,1 55422U 23014AH  24146.83030609  .00000692  00000-0  65766-4 0  9995,2 55422  69.9998 290.4018 0002840 263.7175  96.3661 14.98329841 72839,6950.193,96.107,574.032,570.085,0.0
55422.0,STARLINK-5006,PAYLOAD,2024-05-26 15:09:15,14.98330534,0.0002992,69.9993,288.3806,266.5182,93.5635,7.9382e-05,8.54e-06,0.0,0 STARLINK-5006,1 55422U 23014AH  24147.63142410  .00000854  00000-0  79382-4 0  9997,2 55422  69.9993 288.3806 0002992 266.5182  93.5635 14.98330534 73890,6950.191,96.107,574.136,569.977,0.0
55422.0,STARLINK-5006,PAYLOAD,2024-05-26 19:57:39,14.98333894,0.0002952,69.9994,287.8756,270.0013,90.0808,9.5825e-05,1.051e-05,0.0,0 STARLINK-5006,1 55422U 23014AH  24147.83170181  .00001051  00000-0  95825-4 0  9995,2 55422  69.9994 287.8756 0002952 270.0013  90.0808 14.98333894 72983,6950.181,96.107,574.098,569.994,0.0
55422.0,STARLINK-5006,PAYLOAD,2024-05-27 15:11:15,14.9833075,0.0002879,69.9998,285.856,263.8811,96.202,7.1951e-05,7.66e-06,0.0,0 STARLINK-5006,1 55422U 23014AH  24148.63282301  .00000766  00000-0  71951-4 0  9998,2 55422  69.9998 285.8560 0002879 263.8811  96.2020 14.98330750 74043,6950.191,96.107,574.057,570.055,0.0
55422.0,STARLINK-5006,PAYLOAD,2024-05-27 19:59:39,14.98332862,0.0002865,69.9998,285.3509,262.7497,97.3336,9.1655e-05,1.001e-05,0.0,0 STARLINK-5006,1 55422U 23014AH  24148.83310085  .00001001  00000-0  91655-4 0  9997,2 55422  69.9998 285.3509 0002865 262.7497  97.3336 14.98332862 73131,6950.184,96.107,574.04,570.058,0.0
55422.0,STARLINK-5006,PAYLOAD,2024-05-28 13:37:08,14.9833214,0.0002823,70.0,283.4993,260.6902,99.3937,4.3834e-05,4.3e-06,0.0,0 STARLINK-5006,1 55422U 23014AH  24149.56746095  .00000430  00000-0  43834-4 0  9993,2 55422  70.0000 283.4993 0002823 260.6902  99.3937 14.98332140 74180,6950.186,96.107,574.013,570.089,0.0
55422.0,STARLINK-5006,PAYLOAD,2024-05-28 16:49:24,14.98332711,0.0002809,70.0,283.1627,260.4412,99.6429,4.8718e-05,4.88e-06,0.0,0 STARLINK-5006,1 55422U 23014AH  24149.70098020  .00000488  00000-0  48718-4 0  9996,2 55422  70.0000 283.1627 0002809 260.4412  99.6429 14.98332711 74205,6950.185,96.107,574.002,570.097,0.0
55422.0,STARLINK-5006,PAYLOAD,2024-05-29 12:03:01,14.98330131,0.0002788,70.0001,281.1429,258.8107,101.2738,1.7437e-05,1.15e-06,0.0,0 STARLINK-5006,1 55422U 23014AH  24150.50210193  .00000115  00000-0  17437-4 0  9994,2 55422  70.0001 281.1429 0002788 258.8107 101.2738 14.98330131 73387,6950.192,96.107,573.995,570.12,0.0
